CCSDS_OMM_VERS = 2.0
CREATION_DATE  = 
ORIGINATOR     = 

OBJECT_NAME    = IDEFIX & ARIANE 42P R/B
OBJECT_ID      = 2002-021B
CENTER_NAME    = EARTH
REF_FRAME      = TEME
TIME_SYSTEM    = UTC
MEAN_ELEMENT_THEORY = SGP/SGP4

EPOCH          = 2026-01-12T06:42:19.304640
MEAN_MOTION    = 14.30977669
ECCENTRICITY   = .00118966
INCLINATION    = 98.5816
RA_OF_ASC_NODE = 311.5795
ARG_OF_PERICENTER = 359.3134
MEAN_ANOMALY   = 0.8031

EPHEMERIS_TYPE = 0
CLASSIFICATION_TYPE = U
NORAD_CAT_ID   = 27422
ELEMENT_SET_NO = 999
REV_AT_EPOCH   = 23595
BSTAR          = .12692653E-3
MEAN_MOTION_DOT = .29E-5
MEAN_MOTION_DDOT = 0

CCSDS_OMM_VERS = 2.0
CREATION_DATE  = 
ORIGINATOR     = 

OBJECT_NAME    = AQUA
OBJECT_ID      = 2002-022A
CENTER_NAME    = EARTH
REF_FRAME      = TEME
TIME_SYSTEM    = UTC
MEAN_ELEMENT_THEORY = SGP/SGP4

EPOCH          = 2026-01-12T07:05:54.761280
MEAN_MOTION    = 14.61817302
ECCENTRICITY   = .0002034
INCLINATION    = 98.4078
RA_OF_ASC_NODE = 338.6778
ARG_OF_PERICENTER = 81.5885
MEAN_ANOMALY   = 29.6294

EPHEMERIS_TYPE = 0
CLASSIFICATION_TYPE = U
NORAD_CAT_ID   = 27424
ELEMENT_SET_NO = 999
REV_AT_EPOCH   = 26049
BSTAR          = .21554664E-3
MEAN_MOTION_DOT = .1027E-4
MEAN_MOTION_DDOT = 0

CCSDS_OMM_VERS = 2.0
CREATION_DATE  = 
ORIGINATOR     = 

OBJECT_NAME    = CZ-4B R/B
OBJECT_ID      = 2002-024C
CENTER_NAME    = EARTH
REF_FRAME      = TEME
TIME_SYSTEM    = UTC
MEAN_ELEMENT_THEORY = SGP/SGP4

EPOCH          = 2026-01-12T02:58:23.130048
MEAN_MOTION    = 14.14535234
ECCENTRICITY   = .00501711
INCLINATION    = 98.8954
RA_OF_ASC_NODE = 65.7830
ARG_OF_PERICENTER = 182.5909
MEAN_ANOMALY   = 197.0876

EPHEMERIS_TYPE = 0
CLASSIFICATION_TYPE = U
NORAD_CAT_ID   = 27432
ELEMENT_SET_NO = 999
REV_AT_EPOCH   = 22124
BSTAR          = .42702118E-4
MEAN_MOTION_DOT = .38E-6
MEAN_MOTION_DDOT = 0

CCSDS_OMM_VERS = 2.0
CREATION_DATE  = 
ORIGINATOR     = 

OBJECT_NAME    = MIDORI II (ADEOS-II)
OBJECT_ID      = 2002-056A
CENTER_NAME    = EARTH
REF_FRAME      = TEME
TIME_SYSTEM    = UTC
MEAN_ELEMENT_THEORY = SGP/SGP4

EPOCH          = 2026-01-12T07:24:50.496192
MEAN_MOTION    = 14.29233723
ECCENTRICITY   = .0001596
INCLINATION    = 98.7677
RA_OF_ASC_NODE = 330.4326
ARG_OF_PERICENTER = 122.4104
MEAN_ANOMALY   = 237.7232

EPHEMERIS_TYPE = 0
CLASSIFICATION_TYPE = U
NORAD_CAT_ID   = 27597
ELEMENT_SET_NO = 999
REV_AT_EPOCH   = 20224
BSTAR          = .13889591E-3
MEAN_MOTION_DOT = .308E-5
MEAN_MOTION_DDOT = 0

CCSDS_OMM_VERS = 2.0
CREATION_DATE  = 
ORIGINATOR     = 

OBJECT_NAME    = H-2A R/B
OBJECT_ID      = 2002-056E
CENTER_NAME    = EARTH
REF_FRAME      = TEME
TIME_SYSTEM    = UTC
MEAN_ELEMENT_THEORY = SGP/SGP4

EPOCH          = 2026-01-12T08:07:32.395296
MEAN_MOTION    = 14.33709885
ECCENTRICITY   = .00697632
INCLINATION    = 98.3107
RA_OF_ASC_NODE = 334.8847
ARG_OF_PERICENTER = 330.4575
MEAN_ANOMALY   = 193.7143

EPHEMERIS_TYPE = 0
CLASSIFICATION_TYPE = U
NORAD_CAT_ID   = 27601
ELEMENT_SET_NO = 999
REV_AT_EPOCH   = 20603
BSTAR          = .14024814E-3
MEAN_MOTION_DOT = .358E-5
MEAN_MOTION_DDOT = 0

CCSDS_OMM_VERS = 2.0
CREATION_DATE  = 
ORIGINATOR     = 

OBJECT_NAME    = CZ-4B R/B
OBJECT_ID      = 2003-049C
CENTER_NAME    = EARTH
REF_FRAME      = TEME
TIME_SYSTEM    = UTC
MEAN_ELEMENT_THEORY = SGP/SGP4

EPOCH          = 2026-01-11T23:49:44.694624
MEAN_MOTION    = 14.54946113
ECCENTRICITY   = .00490703
INCLINATION    = 98.6813
RA_OF_ASC_NODE = 4.7040
ARG_OF_PERICENTER = 45.6871
MEAN_ANOMALY   = 314.8333

EPHEMERIS_TYPE = 0
CLASSIFICATION_TYPE = U
NORAD_CAT_ID   = 28059
ELEMENT_SET_NO = 999
REV_AT_EPOCH   = 17835
BSTAR          = .12244034E-3
MEAN_MOTION_DOT = .484E-5
MEAN_MOTION_DDOT = 0

CCSDS_OMM_VERS = 2.0
CREATION_DATE  = 
ORIGINATOR     = 

OBJECT_NAME    = CZ-2C R/B
OBJECT_ID      = 2004-012C
CENTER_NAME    = EARTH
REF_FRAME      = TEME
TIME_SYSTEM    = UTC
MEAN_ELEMENT_THEORY = SGP/SGP4

EPOCH          = 2026-01-12T03:24:59.611968
MEAN_MOTION    = 15.58243804
ECCENTRICITY   = .00169441
INCLINATION    = 97.7371
RA_OF_ASC_NODE = 72.3267
ARG_OF_PERICENTER = 155.8548
MEAN_ANOMALY   = 204.3505

EPHEMERIS_TYPE = 0
CLASSIFICATION_TYPE = U
NORAD_CAT_ID   = 28222
ELEMENT_SET_NO = 999
REV_AT_EPOCH   = 19545
BSTAR          = .61921092E-3
MEAN_MOTION_DOT = .47201E-3
MEAN_MOTION_DDOT = 0

CCSDS_OMM_VERS = 2.0
CREATION_DATE  = 
ORIGINATOR     = 

OBJECT_NAME    = SL-16 R/B
OBJECT_ID      = 2004-021B
CENTER_NAME    = EARTH
REF_FRAME      = TEME
TIME_SYSTEM    = UTC
MEAN_ELEMENT_THEORY = SGP/SGP4

EPOCH          = 2026-01-12T07:27:58.118976
MEAN_MOTION    = 14.14592335
ECCENTRICITY   = .00032786
INCLINATION    = 71.0027
RA_OF_ASC_NODE = 350.8071
ARG_OF_PERICENTER = 149.0541
MEAN_ANOMALY   = 211.0775

EPHEMERIS_TYPE = 0
CLASSIFICATION_TYPE = U
NORAD_CAT_ID   = 28353
ELEMENT_SET_NO = 999
REV_AT_EPOCH   = 11486
BSTAR          = .68484967E-4
MEAN_MOTION_DOT = .84E-6
MEAN_MOTION_DDOT = 0

CCSDS_OMM_VERS = 2.0
CREATION_DATE  = 
ORIGINATOR     = 

OBJECT_NAME    = CZ-4B R/B
OBJECT_ID      = 2004-035C
CENTER_NAME    = EARTH
REF_FRAME      = TEME
TIME_SYSTEM    = UTC
MEAN_ELEMENT_THEORY = SGP/SGP4

EPOCH          = 2026-01-12T02:03:06.936480
MEAN_MOTION    = 15.27963190
ECCENTRICITY   = .00331849
INCLINATION    = 97.3581
RA_OF_ASC_NODE = 47.0308
ARG_OF_PERICENTER = 166.6397
MEAN_ANOMALY   = 193.5729

EPHEMERIS_TYPE = 0
CLASSIFICATION_TYPE = U
NORAD_CAT_ID   = 28415
ELEMENT_SET_NO = 999
REV_AT_EPOCH   = 17126
BSTAR          = .33684077E-3
MEAN_MOTION_DOT = .9268E-4
MEAN_MOTION_DDOT = 0

CCSDS_OMM_VERS = 2.0
CREATION_DATE  = 
ORIGINATOR     = 

OBJECT_NAME    = CZ-2C R/B
OBJECT_ID      = 2004-046B
CENTER_NAME    = EARTH
REF_FRAME      = TEME
TIME_SYSTEM    = UTC
MEAN_ELEMENT_THEORY = SGP/SGP4

EPOCH          = 2026-01-12T04:19:26.040000
MEAN_MOTION    = 14.26964822
ECCENTRICITY   = .01388062
INCLINATION    = 98.2000
RA_OF_ASC_NODE = 290.6694
ARG_OF_PERICENTER = 322.4399
MEAN_ANOMALY   = 36.7148

EPHEMERIS_TYPE = 0
CLASSIFICATION_TYPE = U
NORAD_CAT_ID   = 28480
ELEMENT_SET_NO = 999
REV_AT_EPOCH   = 10044
BSTAR          = .10128695E-3
MEAN_MOTION_DOT = .23E-5
MEAN_MOTION_DDOT = 0

CCSDS_OMM_VERS = 2.0
CREATION_DATE  = 
ORIGINATOR     = 

OBJECT_NAME    = ARIANE 5 R/B
OBJECT_ID      = 2004-049H
CENTER_NAME    = EARTH
REF_FRAME      = TEME
TIME_SYSTEM    = UTC
MEAN_ELEMENT_THEORY = SGP/SGP4

EPOCH          = 2026-01-11T23:21:03.554784
MEAN_MOTION    = 14.85114625
ECCENTRICITY   = .00844817
INCLINATION    = 98.2542
RA_OF_ASC_NODE = 178.3436
ARG_OF_PERICENTER = 174.1220
MEAN_ANOMALY   = 186.1006

EPHEMERIS_TYPE = 0
CLASSIFICATION_TYPE = U
NORAD_CAT_ID   = 28499
ELEMENT_SET_NO = 999
REV_AT_EPOCH   = 13737
BSTAR          = .15961843E-3
MEAN_MOTION_DOT = .1391E-4
MEAN_MOTION_DDOT = 0

CCSDS_OMM_VERS = 2.0
CREATION_DATE  = 
ORIGINATOR     = 

OBJECT_NAME    = CZ-2D R/B
OBJECT_ID      = 2005-024B
CENTER_NAME    = EARTH
REF_FRAME      = TEME
TIME_SYSTEM    = UTC
MEAN_ELEMENT_THEORY = SGP/SGP4

EPOCH          = 2026-01-11T23:35:18.397248
MEAN_MOTION    = 15.55316792
ECCENTRICITY   = .00038049
INCLINATION    = 97.3629
RA_OF_ASC_NODE = 25.2658
ARG_OF_PERICENTER = 204.2791
MEAN_ANOMALY   = 155.8284

EPHEMERIS_TYPE = 0
CLASSIFICATION_TYPE = U
NORAD_CAT_ID   = 28738
ELEMENT_SET_NO = 999
REV_AT_EPOCH   = 13095
BSTAR          = .50919195E-3
MEAN_MOTION_DOT = .34538E-3
MEAN_MOTION_DDOT = 0

