IDEFIX & ARIANE 42P R/B 
1 27422U 02021B   26012.27939010  .00000290  00000+0  12693-3 0  9998
2 27422  98.5816 311.5795 0011896 359.3134   0.8031 14.30977669235958
AQUA                    
1 27424U 02022A   26012.29577270  .00001027  00000+0  21555-3 0  9995
2 27424  98.4078 338.6778 0002034  81.5885  29.6294 14.61817302260499
CZ-4B R/B               
1 27432U 02024C   26012.12387882  .00000038  00000+0  42702-4 0  9995
2 27432  98.8954  65.7830 0050171 182.5909 197.0876 14.14535234221241
MIDORI II (ADEOS-II)    
1 27597U 02056A   26012.30891778  .00000308  00000+0  13890-3 0  9991
2 27597  98.7677 330.4326 0001596 122.4104 237.7232 14.29233723202244
H-2A R/B                
1 27601U 02056E   26012.33856939  .00000358  00000+0  14025-3 0  9996
2 27601  98.3107 334.8847 0069763 330.4575 193.7143 14.33709885206038
CZ-4B R/B               
1 28059U 03049C   26011.99287841  .00000484  00000+0  12244-3 0  9999
2 28059  98.6813   4.7040 0049070  45.6871 314.8333 14.54946113178354
CZ-2C R/B               
1 28222U 04012C   26012.14235662  .00047201  00000+0  61921-3 0  9998
2 28222  97.7371  72.3267 0016944 155.8548 204.3505 15.58243804195452
SL-16 R/B               
1 28353U 04021B   26012.31108934  .00000084  00000+0  68485-4 0  9994
2 28353  71.0027 350.8071 0003278 149.0541 211.0775 14.14592335114868
CZ-4B R/B               
1 28415U 04035C   26012.08549695  .00009268  00000+0  33684-3 0  9990
2 28415  97.3581  47.0308 0033184 166.6397 193.5729 15.27963190171260
CZ-2C R/B               
1 28480U 04046B   26012.18016250  .00000230  00000+0  10129-3 0  9990
2 28480  98.2000 290.6694 0138806 322.4399  36.7148 14.26964822100449
ARIANE 5 R/B            
1 28499U 04049H   26011.97295781  .00001391  00000+0  15962-3 0  9996
2 28499  98.2542 178.3436 0084481 174.1220 186.1006 14.85114625137378
CZ-2D R/B               
1 28738U 05024B   26011.98285182  .00034538  00000+0  50919-3 0  9991
2 28738  97.3629  25.2658 0003804 204.2791 155.8284 15.55316792130959
